{"type": "FeatureCollection", "features": [ {"type": "Feature", "properties": {"norad_id": 29906, "name": "FENGYUN 1C DEB", "group": "fengyun-1c-debris", "lat": -51.95324775233316, "lon": -102.5322694142593, "alt_km": 729.113552408834, "timestamp": "2025-12-11T10:53:16.158865+00:00", "meta": {"OBJECT_NAME": "FENGYUN 1C DEB", "OBJECT_ID": "1999-025HC", "EPOCH": "2025-12-11T01:32:13.892352", "MEAN_MOTION": 14.49586462, "ECCENTRICITY": 0.0037189, "INCLINATION": 98.7051, "RA_OF_ASC_NODE": 88.3556, "ARG_OF_PERICENTER": 154.1181, "MEAN_ANOMALY": 206.1882, "EPHEMERIS_TYPE": 0, "CLASSIFICATION_TYPE": "U", "NORAD_CAT_ID": 29906, "ELEMENT_SET_NO": 999, "REV_AT_EPOCH": 98133, "BSTAR": 0.0038788, "MEAN_MOTION_DOT": 0.00015006, "MEAN_MOTION_DDOT": 0}, "tle": {"line1": "1 29906U 99025HC  25345.06404968  .00015006  00000+0  38788-2 0  9994", "line2": "2 29906  98.7051  88.3556 0037189 154.1181 206.1882 14.49586462981332"}}, "geometry": {"type": "Point", "coordinates": [-102.5322694142593, -51.95324775233316]}}, {"type": "Feature", "properties": {"norad_id": 29907, "name": "FENGYUN 1C DEB", "group": "fengyun-1c-debris", "lat": -12.910474668414047, "lon": -130.00013608416387, "alt_km": 827.627150238085, "timestamp": "2025-12-11T10:53:16.158876+00:00", "meta": {"OBJECT_NAME": "FENGYUN 1C DEB", "OBJECT_ID": "1999-025HD", "EPOCH": "2025-12-11T03:18:24.922944", "MEAN_MOTION": 14.11618444, "ECCENTRICITY": 0.0083857, "INCLINATION": 99.1116, "RA_OF_ASC_NODE": 51.7874, "ARG_OF_PERICENTER": 253.9526, "MEAN_ANOMALY": 135.5241, "EPHEMERIS_TYPE": 0, "CLASSIFICATION_TYPE": "U", "NORAD_CAT_ID": 29907, "ELEMENT_SET_NO": 999, "REV_AT_EPOCH": 96576, "BSTAR": 0.0023254, "MEAN_MOTION_DOT": 4.324e-05, "MEAN_MOTION_DDOT": 0}, "tle": {"line1": "1 29907U 99025HD  25345.13778846  .00004324  00000+0  23254-2 0  9995", "line2": "2 29907  99.1116  51.7874 0083857 253.9526 135.5241 14.11618444965769"}}, "geometry": {"type": "Point", "coordinates": [-130.00013608416387, -12.910474668414047]}}, {"type": "Feature", "properties": {"norad_id": 29909, "name": "FENGYUN 1C DEB", "group": "fengyun-1c-debris", "lat": -74.903899701285, "lon": 123.49654287508203, "alt_km": 719.5266888724009, "timestamp": "2025-12-11T10:53:16.158886+00:00", "meta": {"OBJECT_NAME": "FENGYUN 1C DEB", "OBJECT_ID": "1999-025HF", "EPOCH": "2025-12-11T04:55:47.098272", "MEAN_MOTION": 14.55077205, "ECCENTRICITY": 0.0038313, "INCLINATION": 98.6342, "RA_OF_ASC_NODE": 88.9565, "ARG_OF_PERICENTER": 20.0631, "MEAN_ANOMALY": 43.1653, "EPHEMERIS_TYPE": 0, "CLASSIFICATION_TYPE": "U", "NORAD_CAT_ID": 29909, "ELEMENT_SET_NO": 999, "REV_AT_EPOCH": 98383, "BSTAR": 0.0031774, "MEAN_MOTION_DOT": 0.00013816, "MEAN_MOTION_DDOT": 0}, "tle": {"line1": "1 29909U 99025HF  25345.20540623  .00013816  00000+0  31774-2 0  9997", "line2": "2 29909  98.6342  88.9565 0038313  20.0631  43.1653 14.55077205983833"}}, "geometry": {"type": "Point", "coordinates": [123.49654287508203, -74.903899701285]}}, {"type": "Feature", "properties": {"norad_id": 29911, "name": "FENGYUN 1C DEB", "group": "fengyun-1c-debris", "lat": -55.485609491411516, "lon": -164.30182274780222, "alt_km": 833.4429509061611, "timestamp": "2025-12-11T10:53:16.158897+00:00", "meta": {"OBJECT_NAME": "FENGYUN 1C DEB", "OBJECT_ID": "1999-025HH", "EPOCH": "2025-12-11T01:35:04.605792", "MEAN_MOTION": 14.18846227, "ECCENTRICITY": 0.0027418, "INCLINATION": 98.7156, "RA_OF_ASC_NODE": 28.2069, "ARG_OF_PERICENTER": 155.5545, "MEAN_ANOMALY": 261.6762, "EPHEMERIS_TYPE": 0, "CLASSIFICATION_TYPE": "U", "NORAD_CAT_ID": 29911, "ELEMENT_SET_NO": 999, "REV_AT_EPOCH": 97407, "BSTAR": 0.0010645, "MEAN_MOTION_DOT": 2.18e-05, "MEAN_MOTION_DDOT": 0}, "tle": {"line1": "1 29911U 99025HH  25345.06602553  .00002180  00000+0  10645-2 0  9991", "line2": "2 29911  98.7156  28.2069 0027418 155.5545 261.6762 14.18846227974079"}}, "geometry": {"type": "Point", "coordinates": [-164.30182274780222, -55.485609491411516]}}, {"type": "Feature", "properties": {"norad_id": 29912, "name": "FENGYUN 1C DEB", "group": "fengyun-1c-debris", "lat": 78.11356820799422, "lon": 35.92399520824473, "alt_km": 765.0527920220065, "timestamp": "2025-12-11T10:53:16.158907+00:00", "meta": {"OBJECT_NAME": "FENGYUN 1C DEB", "OBJECT_ID": "1999-025HJ", "EPOCH": "2025-12-11T05:45:52.460064", "MEAN_MOTION": 14.42944357, "ECCENTRICITY": 0.0042906, "INCLINATION": 98.7379, "RA_OF_ASC_NODE": 82.649, "ARG_OF_PERICENTER": 223.2645, "MEAN_ANOMALY": 190.7301, "EPHEMERIS_TYPE": 0, "CLASSIFICATION_TYPE": "U", "NORAD_CAT_ID": 29912, "ELEMENT_SET_NO": 999, "REV_AT_EPOCH": 98017, "BSTAR": 0.0035623, "MEAN_MOTION_DOT": 0.00012021, "MEAN_MOTION_DDOT": 0}, "tle": {"line1": "1 29912U 99025HJ  25345.24019051  .00012021  00000+0  35623-2 0  9995", "line2": "2 29912  98.7379  82.6490 0042906 223.2645 190.7301 14.42944357980171"}}, "geometry": {"type": "Point", "coordinates": [35.92399520824473, 78.11356820799422]}}, {"type": "Feature", "properties": {"norad_id": 29913, "name": "FENGYUN 1C DEB", "group": "fengyun-1c-debris", "lat": -2.77911516109039, "lon": -15.229382498525023, "alt_km": 865.1683918963563, "timestamp": "2025-12-11T10:53:16.158917+00:00", "meta": {"OBJECT_NAME": "FENGYUN 1C DEB", "OBJECT_ID": "1999-025HK", "EPOCH": "2025-12-10T11:44:20.211648", "MEAN_MOTION": 14.07378037, "ECCENTRICITY": 0.00619005, "INCLINATION": 98.7875, "RA_OF_ASC_NODE": 343.4025, "ARG_OF_PERICENTER": 277.9141, "MEAN_ANOMALY": 234.5189, "EPHEMERIS_TYPE": 0, "CLASSIFICATION_TYPE": "U", "NORAD_CAT_ID": 29913, "ELEMENT_SET_NO": 999, "REV_AT_EPOCH": 96933, "BSTAR": 0.00043430314, "MEAN_MOTION_DOT": 6.99e-06, "MEAN_MOTION_DDOT": 0}, "tle": {"line1": "1 29913U 99025HK  25344.48912282  .00000699  00000+0  43430-3 0  9993", "line2": "2 29913  98.7875 343.4025 0061900 277.9141 234.5189 14.07378037969330"}}, "geometry": {"type": "Point", "coordinates": [-15.229382498525023, -2.77911516109039]}}, {"type": "Feature", "properties": {"norad_id": 29914, "name": "FENGYUN 1C DEB", "group": "fengyun-1c-debris", "lat": 22.787379491937187, "lon": -162.18224536002003, "alt_km": 861.6435586599164, "timestamp": "2025-12-11T10:53:16.158928+00:00", "meta": {"OBJECT_NAME": "FENGYUN 1C DEB", "OBJECT_ID": "1999-025HL", "EPOCH": "2025-12-11T01:53:02.347296", "MEAN_MOTION": 14.03131921, "ECCENTRICITY": 0.0036533, "INCLINATION": 98.8449, "RA_OF_ASC_NODE": 13.7026, "ARG_OF_PERICENTER": 119.5736, "MEAN_ANOMALY": 302.9976, "EPHEMERIS_TYPE": 0, "CLASSIFICATION_TYPE": "U", "NORAD_CAT_ID": 29914, "ELEMENT_SET_NO": 999, "REV_AT_EPOCH": 96763, "BSTAR": 0.00013707, "MEAN_MOTION_DOT": 1.72e-06, "MEAN_MOTION_DDOT": 0}, "tle": {"line1": "1 29914U 99025HL  25345.07849939  .00000172  00000+0  13707-3 0  9998", "line2": "2 29914  98.8449  13.7026 0036533 119.5736 302.9976 14.03131921967632"}}, "geometry": {"type": "Point", "coordinates": [-162.18224536002003, 22.787379491937187]}}, {"type": "Feature", "properties": {"norad_id": 29916, "name": "FENGYUN 1C DEB", "group": "fengyun-1c-debris", "lat": 13.099871139147842, "lon": 2.6227952286447582, "alt_km": 1116.9119563197573, "timestamp": "2025-12-11T10:53:16.158938+00:00", "meta": {"OBJECT_NAME": "FENGYUN 1C DEB", "OBJECT_ID": "1999-025HN", "EPOCH": "2025-12-11T00:22:13.317024", "MEAN_MOTION": 13.56980977, "ECCENTRICITY": 0.0271193, "INCLINATION": 99.1949, "RA_OF_ASC_NODE": 4.3729, "ARG_OF_PERICENTER": 262.9323, "MEAN_ANOMALY": 127.8596, "EPHEMERIS_TYPE": 0, "CLASSIFICATION_TYPE": "U", "NORAD_CAT_ID": 29916, "ELEMENT_SET_NO": 999, "REV_AT_EPOCH": 93429, "BSTAR": 0.00093236, "MEAN_MOTION_DOT": 7.98e-06, "MEAN_MOTION_DDOT": 0}, "tle": {"line1": "1 29916U 99025HN  25345.01543191  .00000798  00000+0  93236-3 0  9994", "line2": "2 29916  99.1949   4.3729 0271193 262.9323 127.8596 13.56980977934295"}}, "geometry": {"type": "Point", "coordinates": [2.6227952286447582, 13.099871139147842]}}, {"type": "Feature", "properties": {"norad_id": 29917, "name": "FENGYUN 1C DEB", "group": "fengyun-1c-debris", "lat": 35.90683916504771, "lon": -159.30834722974726, "alt_km": 995.5571739200386, "timestamp": "2025-12-11T10:53:16.158949+00:00", "meta": {"OBJECT_NAME": "FENGYUN 1C DEB", "OBJECT_ID": "1999-025HP", "EPOCH": "2025-12-10T21:16:37.240032", "MEAN_MOTION": 13.70404005, "ECCENTRICITY": 0.0222747, "INCLINATION": 98.8765, "RA_OF_ASC_NODE": 206.6646, "ARG_OF_PERICENTER": 129.2763, "MEAN_ANOMALY": 353.4245, "EPHEMERIS_TYPE": 0, "CLASSIFICATION_TYPE": "U", "NORAD_CAT_ID": 29917, "ELEMENT_SET_NO": 999, "REV_AT_EPOCH": 94105, "BSTAR": 0.0014131, "MEAN_MOTION_DOT": 1.451e-05, "MEAN_MOTION_DDOT": 0}, "tle": {"line1": "1 29917U 99025HP  25344.88654213  .00001451  00000+0  14131-2 0  9990", "line2": "2 29917  98.8765 206.6646 0222747 129.2763 353.4245 13.70404005941056"}}, "geometry": {"type": "Point", "coordinates": [-159.30834722974726, 35.90683916504771]}}, {"type": "Feature", "properties": {"norad_id": 29918, "name": "FENGYUN 1C DEB", "group": "fengyun-1c-debris", "lat": -63.6927251068339, "lon": 86.23838995430293, "alt_km": 778.6782205424151, "timestamp": "2025-12-11T10:53:16.158960+00:00", "meta": {"OBJECT_NAME": "FENGYUN 1C DEB", "OBJECT_ID": "1999-025HQ", "EPOCH": "2025-12-11T04:44:28.750272", "MEAN_MOTION": 14.33578781, "ECCENTRICITY": 0.0012816, "INCLINATION": 98.854, "RA_OF_ASC_NODE": 67.5984, "ARG_OF_PERICENTER": 321.3259, "MEAN_ANOMALY": 92.6886, "EPHEMERIS_TYPE": 0, "CLASSIFICATION_TYPE": "U", "NORAD_CAT_ID": 29918, "ELEMENT_SET_NO": 999, "REV_AT_EPOCH": 97772, "BSTAR": 0.0022479, "MEAN_MOTION_DOT": 6.188e-05, "MEAN_MOTION_DDOT": 0}, "tle": {"line1": "1 29918U 99025HQ  25345.19755498  .00006188  00000+0  22479-2 0  9999", "line2": "2 29918  98.8540  67.5984 0012816 321.3259  92.6886 14.33578781977725"}}, "geometry": {"type": "Point", "coordinates": [86.23838995430293, -63.6927251068339]}}]}